GPS BIIR-2  (PRN 13)    
1 24876U 97035A   20130.05195705  .00000041  00000-0  00000+0 0  9993
2 24876  55.4541 185.6920 0039050  61.1464 299.3291  2.00565031167026
GPS BIIR-3  (PRN 11)    
1 25933U 99055A   20131.38011241 -.00000104  00000-0  00000-0 0  9993
2 25933  52.2915  31.6475 0157601 113.7927  67.7797  2.00558225150877
GPS BIIR-4  (PRN 20)    
1 26360U 00025A   20130.58463293  .00000000  00000-0  00000-0 0  9990
2 26360  53.5089 110.7886 0049832 154.5280 208.9860  2.00566635146558
GPS BIIR-5  (PRN 28)    
1 26407U 00040A   20130.62844413 -.00000049  00000-0  00000-0 0  9995
2 26407  56.0253 303.7008 0186332 279.2613  78.9293  2.00564703145236
GPS BIIR-6  (PRN 14)    
1 26605U 00071A   20131.33026899  .00000025  00000-0  00000-0 0  9991
2 26605  55.0302 182.9574 0115968 250.4840 169.9997  2.00567098142841
GPS BIIR-8  (PRN 16)    
1 27663U 03005A   20130.95475267 -.00000048  00000-0  00000+0 0  9995
2 27663  56.0812 303.4734 0113890  35.1238 323.1314  2.00554026126590
GPS BIIR-9  (PRN 21)    
1 27704U 03010A   20129.26175209 -.00000079  00000-0  00000-0 0  9997
2 27704  54.5987  54.6394 0248895 283.4792 264.3364  2.00582046125364
GPS BIIR-10 (PRN 22)    
1 28129U 03058A   20131.23664854  .00000003  00000-0  00000-0 0  9996
2 28129  53.3200 113.4836 0074131 292.2877  66.9044  2.00582602120081
GPS BIIR-11 (PRN 19)    
1 28190U 04009A   20130.04903726 -.00000094  00000-0  00000-0 0  9994
2 28190  56.2767   4.3020 0091739  92.2561 126.6009  2.00562680118258
GPS BIIR-12 (PRN 23)    
1 28361U 04023A   20131.47362216  .00000024  00000-0  00000-0 0  9993
2 28361  54.0601 176.9843 0143757 234.8820 176.4516  2.00390715116342
GPS BIIR-13 (PRN 02)    
1 28474U 04045A   20131.54745503 -.00000079  00000-0  00000-0 0  9995
2 28474  54.9466  54.4158 0199775 266.6175 232.1291  2.00561457113734
GPS BIIRM-1 (PRN 17)    
1 28874U 05038A   20131.44522185 -.00000099  00000-0  00000-0 0  9992
2 28874  56.3815   1.6308 0134451 266.0487 261.7640  2.00561483107135
GPS BIIRM-2 (PRN 31)    
1 29486U 06042A   20131.40308756 -.00000006  00000-0  00000+0 0  9997
2 29486  54.8740 239.9008 0094890   6.0964  50.5205  2.00575384 99846
GPS BIIRM-3 (PRN 12)    
1 29601U 06052A   20130.77161141 -.00000048  00000-0  00000-0 0  9998
2 29601  56.0682 302.4000 0078829  65.0241 295.7711  2.00561000 98696
GPS BIIRM-4 (PRN 15)    
1 32260U 07047A   20130.57636661  .00000035  00000-0  00000+0 0  9994
2 32260  53.1848 172.3999 0120629  49.4422 311.6784  2.00562461 92118
GPS BIIRM-5 (PRN 29)    
1 32384U 07062A   20128.65834885 -.00000085  00000-0  00000-0 0  9999
2 32384  56.4766   2.4118 0012003 112.4875  72.8373  2.00573850 90791
GPS BIIRM-6 (PRN 07)    
1 32711U 08012A   20131.49430685 -.00000007  00000-0  00000-0 0  9999
2 32711  54.6199 239.0097 0139274 223.2077 135.7104  2.00563823 89073
GPS BIIRM-8 (PRN 05)    
1 35752U 09043A   20130.45144615  .00000010  00000-0  00000+0 0  9994
2 35752  54.5754 116.6181 0056905  43.6039 316.1164  2.00565632 78611
GPS BIIF-1  (PRN 25)    
1 36585U 10022A   20131.05472503 -.00000045  00000-0  00000+0 0  9994
2 36585  55.3417 298.4516 0090762  52.3896 128.7693  2.00577741 72879
GPS BIIF-2  (PRN 01)    
1 37753U 11036A   20130.93633080 -.00000071  00000-0  00000-0 0  9993
2 37753  56.1501  58.7910 0096527  43.3608 137.8821  2.00569339 64566
GPS BIIF-3  (PRN 24)    
1 38833U 12053A   20130.17955076 -.00000000  00000-0  00000-0 0  9993
2 38833  53.6610 234.9466 0095052  37.1981 323.4757  2.00565298 54829
GPS BIIF-4  (PRN 27)    
1 39166U 13023A   20130.03675982 -.00000091  00000-0  00000-0 0  9991
2 39166  56.0468 358.3468 0081323  30.2640 330.2492  2.00565173 51159
GPS BIIF-5  (PRN 30)    
1 39533U 14008A   20131.03760180 -.00000006  00000-0  00000-0 0  9995
2 39533  53.7787 240.3423 0046322 197.5970 162.2562  2.00565795 44994
GPS BIIF-6  (PRN 06)    
1 39741U 14026A   20131.31865581 -.00000072  00000-0  00000-0 0  9991
2 39741  56.1254  58.3037 0021590 295.9942  63.7748  2.00579982 43837
GPS BIIF-7  (PRN 09)    
1 40105U 14045A   20131.40368345  .00000025  00000-0  00000+0 0  9990
2 40105  54.5860 177.4682 0013165 106.0683 254.1514  2.00555902 42269
GPS BIIF-8  (PRN 03)    
1 40294U 14068A   20131.27265672  .00000013  00000-0  00000-0 0  9996
2 40294  55.3263 118.3983 0026553  35.9701 324.1909  2.00576762 40506
GPS BIIF-9  (PRN 26)    
1 40534U 15013A   20130.91297585 -.00000046  00000-0  00000-0 0  9999
2 40534  54.2583 296.4540 0046940  10.4107 349.6578  2.00570445 37112
GPS BIIF-10 (PRN 08)    
1 40730U 15033A   20131.07121378 -.00000097  00000-0  00000+0 0  9998
2 40730  55.5639 357.4954 0053736 352.6188   7.3441  2.00564977 35303
GPS BIIF-11 (PRN 10)    
1 41019U 15062A   20131.12261367  .00000013  00000-0  00000-0 0  9998
2 41019  55.3234 118.2295 0056990 211.3763 148.2663  2.00564407 33126
GPS BIIF-12 (PRN 32)    
1 41328U 16007A   20131.21454731  .00000028  00000-0  00000+0 0  9995
2 41328  54.8227 177.9518 0040880 222.0498 137.7112  2.00559062 31187
GPS BIII-1  (PRN 04)    
1 43873U 18109A   20131.63518017  .00000022  00000-0  00000-0 0  9996
2 43873  55.0032 180.1964 0008648 223.8814 332.2530  2.00561709 10419
